{"type": "FeatureCollection", "features": [ {"type": "Feature", "properties": {"norad_id": 66707, "name": "FLOCK 4H-4", "group": "last-30-days", "lat": -79.89794185571557, "lon": -156.3373534834033, "alt_km": 519.2445131643872, "timestamp": "2025-12-25T07:41:08.448491+00:00", "meta": {"OBJECT_NAME": "FLOCK 4H-4", "OBJECT_ID": "2025-276AT", "EPOCH": "2025-12-24T19:26:57.569856", "MEAN_MOTION": 15.17229197, "ECCENTRICITY": 0.00036459, "INCLINATION": 97.4425, "RA_OF_ASC_NODE": 70.361, "ARG_OF_PERICENTER": 242.0331, "MEAN_ANOMALY": 118.0534, "EPHEMERIS_TYPE": 0, "CLASSIFICATION_TYPE": "U", "NORAD_CAT_ID": 66707, "ELEMENT_SET_NO": 999, "REV_AT_EPOCH": 395, "BSTAR": 0.00034474153, "MEAN_MOTION_DOT": 6.792e-05, "MEAN_MOTION_DDOT": 0}, "tle": {"line1": "1 66707U 25276AT  25358.81038854  .00006792  00000+0  34474-3 0  9996", "line2": "2 66707  97.4425  70.3610 0003645 242.0331 118.0534 15.17229197  3952"}}, "geometry": {"type": "Point", "coordinates": [-156.3373534834033, -79.89794185571557]}}, {"type": "Feature", "properties": {"norad_id": 66708, "name": "FLOCK 4H-5", "group": "last-30-days", "lat": -6.010388066261266, "lon": 71.67262964926189, "alt_km": 515.6504107271585, "timestamp": "2025-12-25T07:41:08.448504+00:00", "meta": {"OBJECT_NAME": "FLOCK 4H-5", "OBJECT_ID": "2025-276AU", "EPOCH": "2025-12-24T20:38:22.224480", "MEAN_MOTION": 15.18193463, "ECCENTRICITY": 0.00012796, "INCLINATION": 97.4381, "RA_OF_ASC_NODE": 70.432, "ARG_OF_PERICENTER": 123.5182, "MEAN_ANOMALY": 236.6175, "EPHEMERIS_TYPE": 0, "CLASSIFICATION_TYPE": "U", "NORAD_CAT_ID": 66708, "ELEMENT_SET_NO": 999, "REV_AT_EPOCH": 396, "BSTAR": 0.00048049818, "MEAN_MOTION_DOT": 9.763e-05, "MEAN_MOTION_DDOT": 0}, "tle": {"line1": "1 66708U 25276AU  25358.85997945  .00009763  00000+0  48050-3 0  9992", "line2": "2 66708  97.4381  70.4320 0001279 123.5182 236.6175 15.18193463  3967"}}, "geometry": {"type": "Point", "coordinates": [71.67262964926189, -6.010388066261266]}}, {"type": "Feature", "properties": {"norad_id": 66709, "name": "FLOCK 4H-6", "group": "last-30-days", "lat": -27.96510728631632, "lon": 74.8748759447492, "alt_km": 519.3011013899222, "timestamp": "2025-12-25T07:41:08.448514+00:00", "meta": {"OBJECT_NAME": "FLOCK 4H-6", "OBJECT_ID": "2025-276AV", "EPOCH": "2025-12-24T20:44:06.556128", "MEAN_MOTION": 15.17939321, "ECCENTRICITY": 0.00027802, "INCLINATION": 97.4429, "RA_OF_ASC_NODE": 70.4462, "ARG_OF_PERICENTER": 197.9903, "MEAN_ANOMALY": 162.1233, "EPHEMERIS_TYPE": 0, "CLASSIFICATION_TYPE": "U", "NORAD_CAT_ID": 66709, "ELEMENT_SET_NO": 999, "REV_AT_EPOCH": 396, "BSTAR": 0.00050381657, "MEAN_MOTION_DOT": 0.00010166, "MEAN_MOTION_DDOT": 0}, "tle": {"line1": "1 66709U 25276AV  25358.86396477  .00010166  00000+0  50382-3 0  9997", "line2": "2 66709  97.4429  70.4462 0002780 197.9903 162.1233 15.17939321  3960"}}, "geometry": {"type": "Point", "coordinates": [74.8748759447492, -27.96510728631632]}}, {"type": "Feature", "properties": {"norad_id": 66710, "name": "FLOCK 4H-7", "group": "last-30-days", "lat": -70.7232685017099, "lon": 92.7908215806072, "alt_km": 519.9876713765743, "timestamp": "2025-12-25T07:41:08.448524+00:00", "meta": {"OBJECT_NAME": "FLOCK 4H-7", "OBJECT_ID": "2025-276AW", "EPOCH": "2025-12-24T20:55:31.560384", "MEAN_MOTION": 15.17508491, "ECCENTRICITY": 0.00010154, "INCLINATION": 97.4386, "RA_OF_ASC_NODE": 70.4143, "ARG_OF_PERICENTER": 274.8391, "MEAN_ANOMALY": 85.2727, "EPHEMERIS_TYPE": 0, "CLASSIFICATION_TYPE": "U", "NORAD_CAT_ID": 66710, "ELEMENT_SET_NO": 999, "REV_AT_EPOCH": 396, "BSTAR": 0.00030547431, "MEAN_MOTION_DOT": 6.058e-05, "MEAN_MOTION_DDOT": 0}, "tle": {"line1": "1 66710U 25276AW  25358.87189306  .00006058  00000+0  30547-3 0  9997", "line2": "2 66710  97.4386  70.4143 0001015 274.8391  85.2727 15.17508491  3969"}}, "geometry": {"type": "Point", "coordinates": [92.7908215806072, -70.7232685017099]}}, {"type": "Feature", "properties": {"norad_id": 66711, "name": "FLOCK 4H-8", "group": "last-30-days", "lat": -71.85812879696545, "lon": 94.38954018624194, "alt_km": 519.2430640074645, "timestamp": "2025-12-25T07:41:08.448534+00:00", "meta": {"OBJECT_NAME": "FLOCK 4H-8", "OBJECT_ID": "2025-276AX", "EPOCH": "2025-12-24T20:55:51.345984", "MEAN_MOTION": 15.17512229, "ECCENTRICITY": 0.00023632, "INCLINATION": 97.4427, "RA_OF_ASC_NODE": 70.4354, "ARG_OF_PERICENTER": 257.9684, "MEAN_ANOMALY": 102.1285, "EPHEMERIS_TYPE": 0, "CLASSIFICATION_TYPE": "U", "NORAD_CAT_ID": 66711, "ELEMENT_SET_NO": 999, "REV_AT_EPOCH": 396, "BSTAR": 0.00051331155, "MEAN_MOTION_DOT": 0.00010233, "MEAN_MOTION_DDOT": 0}, "tle": {"line1": "1 66711U 25276AX  25358.87212206  .00010233  00000+0  51331-3 0  9998", "line2": "2 66711  97.4427  70.4354 0002363 257.9684 102.1285 15.17512229  3966"}}, "geometry": {"type": "Point", "coordinates": [94.38954018624194, -71.85812879696545]}}, {"type": "Feature", "properties": {"norad_id": 66712, "name": "FLOCK 4H-9", "group": "last-30-days", "lat": -28.970051286265445, "lon": 75.04234876944712, "alt_km": 519.1462417278963, "timestamp": "2025-12-25T07:41:08.448547+00:00", "meta": {"OBJECT_NAME": "FLOCK 4H-9", "OBJECT_ID": "2025-276AY", "EPOCH": "2025-12-24T19:09:27.089280", "MEAN_MOTION": 15.17940141, "ECCENTRICITY": 0.00028045, "INCLINATION": 97.4421, "RA_OF_ASC_NODE": 70.3791, "ARG_OF_PERICENTER": 206.5336, "MEAN_ANOMALY": 153.5755, "EPHEMERIS_TYPE": 0, "CLASSIFICATION_TYPE": "U", "NORAD_CAT_ID": 66712, "ELEMENT_SET_NO": 999, "REV_AT_EPOCH": 395, "BSTAR": 0.00035657891, "MEAN_MOTION_DOT": 7.173e-05, "MEAN_MOTION_DDOT": 0}, "tle": {"line1": "1 66712U 25276AY  25358.79823020  .00007173  00000+0  35658-3 0  9995", "line2": "2 66712  97.4421  70.3791 0002804 206.5336 153.5755 15.17940141  3958"}}, "geometry": {"type": "Point", "coordinates": [75.04234876944712, -28.970051286265445]}}, {"type": "Feature", "properties": {"norad_id": 66713, "name": "FLOCK 4H-10", "group": "last-30-days", "lat": -82.0858836262889, "lon": -179.19519694590724, "alt_km": 518.9324679795664, "timestamp": "2025-12-25T07:41:08.448560+00:00", "meta": {"OBJECT_NAME": "FLOCK 4H-10", "OBJECT_ID": "2025-276AZ", "EPOCH": "2025-12-24T16:15:58.084704", "MEAN_MOTION": 15.17303187, "ECCENTRICITY": 0.00036866, "INCLINATION": 97.4395, "RA_OF_ASC_NODE": 70.2224, "ARG_OF_PERICENTER": 249.1772, "MEAN_ANOMALY": 110.9067, "EPHEMERIS_TYPE": 0, "CLASSIFICATION_TYPE": "U", "NORAD_CAT_ID": 66713, "ELEMENT_SET_NO": 999, "REV_AT_EPOCH": 393, "BSTAR": 0.00061957907, "MEAN_MOTION_DOT": 0.00012295, "MEAN_MOTION_DDOT": 0}, "tle": {"line1": "1 66713U 25276AZ  25358.67775561  .00012295  00000+0  61958-3 0  9992", "line2": "2 66713  97.4395  70.2224 0003686 249.1772 110.9067 15.17303187  3939"}}, "geometry": {"type": "Point", "coordinates": [-179.19519694590724, -82.0858836262889]}}, {"type": "Feature", "properties": {"norad_id": 66714, "name": "FLOCK 4H-11", "group": "last-30-days", "lat": -58.69538926389226, "lon": 83.28887445297806, "alt_km": 518.3792205259579, "timestamp": "2025-12-25T07:41:08.448570+00:00", "meta": {"OBJECT_NAME": "FLOCK 4H-11", "OBJECT_ID": "2025-276BA", "EPOCH": "2025-12-24T20:52:19.258176", "MEAN_MOTION": 15.17837462, "ECCENTRICITY": 0.00020225, "INCLINATION": 97.4412, "RA_OF_ASC_NODE": 70.4349, "ARG_OF_PERICENTER": 265.286, "MEAN_ANOMALY": 94.8143, "EPHEMERIS_TYPE": 0, "CLASSIFICATION_TYPE": "U", "NORAD_CAT_ID": 66714, "ELEMENT_SET_NO": 999, "REV_AT_EPOCH": 396, "BSTAR": 0.00061119853, "MEAN_MOTION_DOT": 0.00012314, "MEAN_MOTION_DDOT": 0}, "tle": {"line1": "1 66714U 25276BA  25358.86966734  .00012314  00000+0  61120-3 0  9991", "line2": "2 66714  97.4412  70.4349 0002022 265.2860  94.8143 15.17837462  3966"}}, "geometry": {"type": "Point", "coordinates": [83.28887445297806, -58.69538926389226]}}, {"type": "Feature", "properties": {"norad_id": 66715, "name": "FLOCK 4H-12", "group": "last-30-days", "lat": -16.261252955636234, "lon": 73.06365785272337, "alt_km": 517.9960029879721, "timestamp": "2025-12-25T07:41:08.448580+00:00", "meta": {"OBJECT_NAME": "FLOCK 4H-12", "OBJECT_ID": "2025-276BB", "EPOCH": "2025-12-24T22:00:03.000096", "MEAN_MOTION": 15.181123, "ECCENTRICITY": 0.00021434, "INCLINATION": 97.4389, "RA_OF_ASC_NODE": 70.4828, "ARG_OF_PERICENTER": 172.1396, "MEAN_ANOMALY": 127.5921, "EPHEMERIS_TYPE": 0, "CLASSIFICATION_TYPE": "U", "NORAD_CAT_ID": 66715, "ELEMENT_SET_NO": 999, "REV_AT_EPOCH": 130, "BSTAR": -0.0011113619, "MEAN_MOTION_DOT": -0.00022648, "MEAN_MOTION_DDOT": 0}, "tle": {"line1": "1 66715U 25276BB  25358.91670139 -.00022648  00000+0 -11114-2 0  9999", "line2": "2 66715  97.4389  70.4828 0002143 172.1396 127.5921 15.18112300  1308"}}, "geometry": {"type": "Point", "coordinates": [73.06365785272337, -16.261252955636234]}}, {"type": "Feature", "properties": {"norad_id": 66716, "name": "FLOCK 4H-13", "group": "last-30-days", "lat": -4.1563903703295955, "lon": 71.44148260496992, "alt_km": 516.2488015483414, "timestamp": "2025-12-25T07:41:08.448590+00:00", "meta": {"OBJECT_NAME": "FLOCK 4H-13", "OBJECT_ID": "2025-276BC", "EPOCH": "2025-12-24T20:37:52.007808", "MEAN_MOTION": 15.1817925, "ECCENTRICITY": 0.00023695, "INCLINATION": 97.4403, "RA_OF_ASC_NODE": 70.4444, "ARG_OF_PERICENTER": 138.0085, "MEAN_ANOMALY": 222.1331, "EPHEMERIS_TYPE": 0, "CLASSIFICATION_TYPE": "U", "NORAD_CAT_ID": 66716, "ELEMENT_SET_NO": 999, "REV_AT_EPOCH": 396, "BSTAR": -0.00062378354, "MEAN_MOTION_DOT": -0.00012783, "MEAN_MOTION_DDOT": 0}, "tle": {"line1": "1 66716U 25276BC  25358.85962972 -.00012783  00000+0 -62378-3 0  9990", "line2": "2 66716  97.4403  70.4444 0002369 138.0085 222.1331 15.18179250  3964"}}, "geometry": {"type": "Point", "coordinates": [71.44148260496992, -4.1563903703295955]}}]}